STARLINK-2436           
1 48101U 21027K   26068.55873813  .00011226  00000+0  39040-3 0  9998
2 48101  53.1602 155.5561 0001556  86.9620 273.1558 15.30214640272647
TIANMU-1 08             
1 57400U 23101B   26066.00237819  .00000346  00000+0  14775-4 0  9993
2 57400  97.2717 118.7901 0006380 134.2174 225.9592 15.29204229146020
